OBJECT_NAME,OBJECT_ID,EPOCH,MEAN_MOTION,ECCENTRICITY,INCLINATION,RA_OF_ASC_NODE,ARG_OF_PERICENTER,MEAN_ANOMALY,EPHEMERIS_TYPE,CLASSIFICATION_TYPE,NORAD_CAT_ID,ELEMENT_SET_NO,REV_AT_EPOCH,BSTAR,MEAN_MOTION_DOT,MEAN_MOTION_DDOT
INTELSAT 23 (IS-23),2012-057A,2026-06-26T05:05:31.265088,1.00271666,.00001661,0.0125,19.9926,139.0605,138.6564,0,U,38867,999,5004,0,-.274E-5,0
FM-6,2013-058A,2026-06-26T07:30:25.176096,1.00271143,.00015725,0.0170,43.7739,136.9939,89.9747,0,U,39360,999,4616,0,-.5E-7,0
INTELSAT 30 (IS-30),2014-062A,2026-06-25T08:43:33.617856,1.00272157,.0001489,0.0269,55.6231,338.6494,275.0652,0,U,40271,999,687,0,-.141E-5,0
DIRECTV 14,2014-078B,2026-06-25T08:42:18.739296,1.00272630,.0000354,0.0098,19.2836,6.4271,279.1338,0,U,40333,999,4212,0,-.116E-5,0
DIRECTV 15,2015-026A,2026-06-25T22:22:39.416160,1.00270429,.00005396,0.0190,62.4777,338.5679,105.7995,0,U,40663,999,4055,0,-.92E-6,0
SKY MEXICO-1,2015-026B,2026-06-25T12:13:31.613088,1.00268983,.0002676,0.0256,359.1063,115.2462,263.8772,0,U,40664,999,4053,0,0,0
INTELSAT 34 (IS-34),2015-039A,2026-06-25T08:54:47.542176,1.00270119,.0000477,0.0077,354.3653,26.9885,330.3532,0,U,40874,999,3971,0,-.275E-5,0
INTELSAT 31 (IS-31),2016-035A,2026-06-26T07:20:53.932128,1.00271688,.00006587,0.0144,284.0453,332.5537,33.0052,0,U,41581,999,3677,0,-.14E-5,0
INTELSAT 36 (IS-36),2016-053A,2026-06-25T04:22:12.926784,1.00272521,.00020421,0.0128,20.9268,321.7510,64.7168,0,U,41747,999,3603,0,-.15E-6,0
INTELSAT 32E (IS-32E),2017-007B,2026-06-26T03:47:33.451584,1.00269211,.00004714,0.0267,12.3300,351.3179,284.3451,0,U,41945,999,3431,0,0,0
INTELSAT 35E (IS-35E),2017-041A,2026-06-26T06:05:13.093728,1.00269368,.00023879,0.0262,17.4303,78.8366,234.9314,0,U,42818,999,3290,0,0,0
INTELSAT 37E (IS-37E),2017-059A,2026-06-26T05:37:28.807680,1.00269805,.00029293,0.0279,23.2048,72.7744,244.7587,0,U,42950,999,3215,0,0,0
AZERSPACE 2 (IS-38),2018-074A,2026-06-25T04:15:28.573056,1.00272596,.00015866,0.0035,82.5969,10.3273,289.3716,0,U,43632,999,2852,0,.146E-5,0
HORIZONS-3E,2018-074B,2026-06-24T03:11:02.118624,1.00270268,.00005468,0.0084,244.9552,64.2971,179.8035,0,U,43633,999,2841,0,-.24E-6,0
AT&T T-16,2019-034A,2026-06-26T03:50:38.441760,1.00276779,.00006874,0.0192,62.4835,297.4738,231.1316,0,U,44333,999,2572,0,-.105E-5,0
INTELSAT 39 (IS-39),2019-049B,2026-06-25T12:53:41.563104,1.00270995,.0000772,0.0262,7.3307,349.0040,172.7126,0,U,44476,999,2521,0,0,0
GALAXY 30 (G-30),2020-056C,2026-06-26T05:19:38.388576,1.00270659,.00023113,0.0265,13.9515,78.9158,136.3766,0,U,46114,999,2138,0,0,0
GALAXY 33 (G-33),2022-128A,2026-06-26T06:23:39.501888,1.00271340,.00020542,0.0139,4.2187,85.3458,147.7428,0,U,54026,999,1383,0,.9E-6,0
GALAXY 34 (G-34),2022-128B,2026-06-26T06:26:09.054240,1.00266230,.00020077,0.0121,28.0825,73.1427,140.7009,0,U,54027,999,1400,0,.71E-6,0
GALAXY 31 (G-31),2022-153A,2026-06-26T07:23:20.532192,1.00269709,.00016555,0.0183,15.9338,83.3117,165.0219,0,U,54243,999,722,0,0,0
GALAXY 32 (G-32),2022-153B,2026-06-25T20:43:18.744096,1.00272131,.00020809,0.0103,23.4109,22.7250,87.6890,0,U,54244,999,1323,0,-.164E-5,0
GALAXY 35 (G-35),2022-170A,2026-06-26T04:34:04.260576,1.00269655,.00022283,0.0186,2.3393,91.8328,155.5552,0,U,54741,999,1298,0,0,0
GALAXY 36 (G-36),2022-170B,2026-06-26T07:01:29.249760,1.00271626,.00028626,0.0346,125.8133,322.7060,202.2753,0,U,54742,999,1286,0,-.174E-5,0
GALAXY 37 (G-37),2023-112A,2026-06-26T07:19:38.743392,1.00271677,.00022319,0.0133,50.5566,41.3514,165.4346,0,U,57493,999,1063,0,.59E-6,0
